OBJECT_NAME,OBJECT_ID,EPOCH,MEAN_MOTION,ECCENTRICITY,INCLINATION,RA_OF_ASC_NODE,ARG_OF_PERICENTER,MEAN_ANOMALY,EPHEMERIS_TYPE,CLASSIFICATION_TYPE,NORAD_CAT_ID,ELEMENT_SET_NO,REV_AT_EPOCH,BSTAR,MEAN_MOTION_DOT,MEAN_MOTION_DDOT
COSMOS 2058,1990-010A,2026-07-13T08:10:57.196128,15.12150732,.00078846,82.4672,283.5614,257.6747,102.3601,0,U,20465,999,96122,.89226153E-4,.1568E-4,0
SL-14 R/B,1990-010B,2026-07-13T08:03:19.166400,14.83662445,.00183142,82.5034,149.3886,243.8747,116.0584,0,U,20466,999,94711,.20718629E-4,.195E-5,0
SL-14 R/B,1990-018B,2026-07-13T04:54:20.814048,14.82233335,.00171744,82.5219,105.7911,43.0004,317.2549,0,U,20511,999,94117,.23597309E-4,.212E-5,0
HST,1990-037B,2026-07-13T11:30:45.235872,15.31050347,.00022052,28.4725,260.8360,88.3061,271.7788,0,U,20580,999,79260,.11486938E-3,.3777E-4,0
SL-16 R/B,1990-046B,2026-07-13T14:22:14.012256,14.15023917,.00124327,70.9984,33.4770,117.1436,243.0956,0,U,20625,999,86620,.12073831E-3,.186E-5,0
COSMOS 2084,1990-055A,2026-07-13T11:38:52.022976,15.06220126,.00078621,62.7885,266.3244,316.5045,43.5434,0,U,20663,999,95526,.75331146E-4,.907E-5,0
SL-6 R/B(2),1990-055D,2026-07-13T09:03:41.548608,15.04083501,.00448749,62.7802,186.2468,8.7952,351.3923,0,U,20666,999,95709,.87842382E-4,.1038E-4,0
SL-8 R/B,1990-078B,2026-07-13T07:59:36.618144,14.93534984,.0343818,82.9030,137.9972,309.8776,47.2666,0,U,20775,999,82802,.34301002E-3,.12107E-3,0
SL-8 R/B,1991-006B,2026-07-13T15:32:34.652256,13.77508948,.00235069,82.9410,76.3478,44.6440,14.3339,0,U,21088,999,78141,.65196817E-4,.8E-6,0
OKEAN-3,1991-039A,2026-07-13T14:14:59.485056,15.05428925,.00122761,82.5140,214.7714,260.7870,99.1968,0,U,21397,999,88397,.11506951E-3,.1681E-4,0
COSMOS 2151,1991-042A,2026-07-13T14:25:47.998272,15.00510620,.00121098,82.4980,322.1890,0.9378,359.1867,0,U,21422,999,88207,.47823899E-4,.631E-5,0
SL-14 R/B,1991-042B,2026-07-13T03:34:29.976384,14.81917402,.0016798,82.4934,102.5505,183.6324,176.4771,0,U,21423,999,87165,.2036614E-4,.185E-5,0
ERS-1,1991-050A,2026-07-13T15:31:49.406304,14.39532285,.00317935,98.7796,215.9911,186.3506,173.7282,0,U,21574,999,83385,.62095421E-4,.148E-5,0
ARIANE 40 R/B,1991-050F,2026-07-13T14:34:15.232800,14.42971374,.00042097,98.1864,241.9930,64.9895,295.1733,0,U,21610,999,83715,.50055945E-4,.126E-5,0
INTERCOSMOS 25,1991-086A,2026-07-13T14:34:34.698720,12.12239460,.14845004,82.6011,233.8219,205.3521,146.6949,0,U,21819,999,51194,.63446259E-4,.333E-5,0
SL-8 R/B,1992-008B,2026-07-13T11:01:59.046816,13.75983474,.00355705,82.9271,174.2535,141.3393,331.8051,0,U,21876,999,72671,.95868309E-4,.109E-5,0
SL-8 R/B,1992-020B,2026-07-13T02:43:29.836128,13.75550280,.00280279,82.9286,60.5973,309.6543,204.7125,0,U,21938,999,71837,.20994008E-4,.35E-6,0
USA 81,1992-023A,2026-07-13T14:39:15.220512,14.32404682,.00020645,85.0052,58.7537,65.4607,294.6801,0,U,21949,999,11281,.3389257E-4,.112E-5,0
COSMOS 2219,1992-076A,2026-07-13T03:37:40.825344,14.14109328,.00181379,71.0614,115.7964,0.6237,359.4905,0,U,22219,999,73611,-.74807049E-4,-.19E-5,0
SL-16 R/B,1992-076B,2026-07-13T15:43:08.760000,14.16876813,.00150262,71.0005,283.0261,264.0819,204.2139,0,U,22220,999,73967,.12811958E-3,.209E-5,0
COSMOS 2221,1992-080A,2026-07-13T09:58:24.257856,14.96601001,.00155989,82.5045,158.6352,125.6299,234.6379,0,U,22236,999,79959,.73436619E-4,.865E-5,0
SL-16 R/B,1992-093B,2026-07-13T04:16:28.851744,14.15466459,.00023645,71.0220,100.8298,139.8557,220.2741,0,U,22285,999,73091,-.77414123E-4,-.199E-5,0
COSMOS 2228,1992-094A,2026-07-13T14:42:23.501664,14.97672614,.00162118,82.5188,116.7314,234.9006,125.0698,0,U,22286,999,79490,.76105349E-4,.919E-5,0
SL-16 R/B,1993-016B,2026-07-13T12:20:37.126176,14.15311942,.00089118,71.0084,310.9110,141.0426,219.1340,0,U,22566,999,71997,.7921084E-4,.107E-5,0
COSMOS 2242,1993-024A,2026-07-13T09:12:42.817824,14.96981670,.00145608,82.5198,146.4796,239.3618,120.6169,0,U,22626,999,79919,.7692878E-4,.912E-5,0
SL-16 R/B,1993-059B,2026-07-13T06:02:27.236832,14.17249915,.0016548,70.9903,106.3392,11.4267,348.7229,0,U,22803,999,69732,-.90932E-4,-.232E-5,0
ARIANE 40 R/B,1993-061H,2026-07-13T14:24:30.723840,14.32918197,.00094787,98.4808,260.9072,270.9240,89.0858,0,U,22830,999,71213,.44182765E-4,.78E-6,0
COSMOS 2278,1994-023A,2026-07-13T15:02:10.208256,14.14393250,.00097322,71.0525,271.6085,207.9939,152.0662,0,U,23087,999,66261,-.666011E-5,-.6E-6,0
SL-16 R/B,1994-023B,2026-07-13T08:00:31.501152,14.15024016,.0001438,70.9982,167.0209,135.3701,224.7538,0,U,23088,999,66386,.3604E-4,.22E-6,0
SL-16 R/B,1994-074B,2026-07-13T16:03:31.967136,14.79523569,.00070485,97.6987,220.2856,158.8699,317.5316,0,U,23343,999,70587,.33067594E-4,.198E-5,0
